NORAD_CAT_ID,OBJECT_NAME,OBJECT_TYPE,EPOCH,MEAN_MOTION,ECCENTRICITY,INCLINATION,RA_OF_ASC_NODE,ARG_OF_PERICENTER,MEAN_ANOMALY,BSTAR,MEAN_MOTION_DOT,MEAN_MOTION_DDOT,TLE_LINE0,TLE_LINE1,TLE_LINE2,SEMIMAJOR_AXIS,PERIOD,APOGEE,PERIGEE,DECAYED
54084.0,STARLINK-5183,PAYLOAD,2022-12-09 16:00:00,15.5000283,0.0001483,53.2173,260.9819,77.0749,72.1022,-0.011612,-0.00612899,0.0,0 STARLINK-5183,1 54084U 22136AK  22343.66667824 -.00612899  00000-0 -11612-1 0  9993,2 54084  53.2173 260.9819 0001483  77.0749  72.1022 15.50002830  8375,6794.855,92.903,417.727,415.712,0.0
54084.0,STARLINK-5183,PAYLOAD,2022-12-10 00:00:00,15.49616069,0.0001423,53.2173,259.3906,67.3351,142.6409,-0.021889,-0.01111779,0.0,0 STARLINK-5183,1 54084U 22136AK  22344.00001157 -.01111779  00000-0 -21889-1 0  9992,2 54084  53.2173 259.3906 0001423  67.3351 142.6409 15.49616069  8431,6795.985,92.926,418.817,416.883,0.0
54084.0,STARLINK-5183,PAYLOAD,2022-12-10 14:00:01,15.48201247,0.0001296,53.2175,256.6052,68.56,155.9566,-0.023307,-0.01141137,0.0,0 STARLINK-5183,1 54084U 22136AK  22344.58334491 -.01141137  00000-0 -23307-1 0  9993,2 54084  53.2175 256.6052 0001296  68.5600 155.9566 15.48201247  1300,6800.125,93.011,422.871,421.109,0.0
54084.0,STARLINK-5183,PAYLOAD,2022-12-10 16:00:00,15.47997379,0.0001126,53.2174,256.2078,68.2096,260.9977,-0.02348,-0.01141334,0.0,0 STARLINK-5183,1 54084U 22136AK  22344.66667824 -.01141334  00000-0 -23480-1 0  9992,2 54084  53.2174 256.2078 0001126  68.2096 260.9977 15.47997379  8533,6800.722,93.023,423.353,421.821,0.0
54084.0,STARLINK-5183,PAYLOAD,2022-12-11 00:00:00,15.47186541,0.0001188,53.2175,254.622,60.7462,326.6088,-0.024248,-0.01145322,0.0,0 STARLINK-5183,1 54084U 22136AK  22345.00001157 -.01145322  00000-0 -24248-1 0  9996,2 54084  53.2175 254.6220 0001188  60.7462 326.6088 15.47186541  1309,6803.098000000001,93.072,425.771,424.155,0.0
54084.0,STARLINK-5183,PAYLOAD,2022-12-11 14:00:01,15.45759574,0.0001097,53.2174,251.8468,66.4694,330.2974,-0.025367,-0.01140635,0.0,0 STARLINK-5183,1 54084U 22136AK  22345.58334491 -.01140635  00000-0 -25367-1 0  9994,2 54084  53.2174 251.8468 0001097  66.4694 330.2974 15.45759574  1305,6807.284000000002,93.158,429.896,428.402,0.0
54084.0,STARLINK-5183,PAYLOAD,2022-12-11 16:00:00,15.4555865,0.0001304,53.2173,251.451,69.0528,71.6702,-0.025653,-0.0114516,0.0,0 STARLINK-5183,1 54084U 22136AK  22345.66667824 -.01145160  00000-0 -25653-1 0  9998,2 54084  53.2173 251.4510 0001304  69.0528  71.6702 15.45558650  8689,6807.874,93.17,430.627,428.851,0.0
54084.0,STARLINK-5183,PAYLOAD,2022-12-11 22:00:01,15.4494769,0.00013,53.2175,250.2657,60.5287,31.762,-0.026155,-0.01143418,0.0,0 STARLINK-5183,1 54084U 22136AK  22345.91668981 -.01143418  00000-0 -26155-1 0  9993,2 54084  53.2175 250.2657 0001300  60.5287  31.7620 15.44947690  1307,6809.669,93.207,432.419,430.649,0.0
54084.0,STARLINK-5183,PAYLOAD,2022-12-12 14:00:01,15.43318686,0.0001304,53.2173,247.106,75.1618,125.0539,-0.027566,-0.01140157,0.0,0 STARLINK-5183,1 54084U 22136AK  22346.58334491 -.01140157  00000-0 -27566-1 0  9997,2 54084  53.2173 247.1060 0001304  75.1618 125.0539 15.43318686  1304,6814.46,93.305,437.213,435.436,0.0
54084.0,STARLINK-5183,PAYLOAD,2022-12-12 16:00:01,15.4311473,0.0001166,53.2173,246.7115,80.3483,223.1556,-0.027752,-0.01139914,0.0,0 STARLINK-5183,1 54084U 22136AK  22346.66668981 -.01139914  00000-0 -27752-1 0  9996,2 54084  53.2173 246.7115 0001166  80.3483 223.1556 15.43114730  8843,6815.06,93.318,437.72,436.131,0.0
54084.0,STARLINK-5183,PAYLOAD,2022-12-12 22:00:00,15.4250677,0.0001313,53.2167,245.5314,89.8205,162.9205,-0.028392,-0.01142266,0.0,0 STARLINK-5183,1 54084U 22136AK  22346.91667824 -.01142266  00000-0 -28392-1 0  9994,2 54084  53.2167 245.5314 0001313  89.8205 162.9205 15.42506770  1307,6816.851,93.355,439.611,437.821,0.0
54084.0,STARLINK-5183,PAYLOAD,2022-12-13 14:00:01,15.40875948,0.000105,53.2173,242.3826,87.9443,266.9206,-0.029859,-0.01137597,0.0,0 STARLINK-5183,1 54084U 22136AK  22347.58334491 -.01137597  00000-0 -29859-1 0  9999,2 54084  53.2173 242.3826 0001050  87.9443 266.9206 15.40875948  8989,6821.66,93.453,444.241,442.809,0.0
54084.0,STARLINK-5183,PAYLOAD,2022-12-13 22:00:00,15.40065346,0.0001277,53.2175,240.8134,57.1579,347.2987,-0.030818,-0.01142454,0.0,0 STARLINK-5183,1 54084U 22136AK  22347.91667824 -.01142454  00000-0 -30818-1 0  9990,2 54084  53.2175 240.8134 0001277  57.1579 347.2987 15.40065346  1307,6824.053000000001,93.503,446.79,445.047,0.0
54084.0,STARLINK-5183,PAYLOAD,2022-12-14 06:00:00,15.392504,0.0001363,53.2172,239.2451,53.6584,39.4143,-0.031573,-0.0113955,0.0,0 STARLINK-5183,1 54084U 22136AK  22348.25001157 -.01139550  00000-0 -31573-1 0  9991,2 54084  53.2172 239.2451 0001363  53.6584  39.4143 15.39250400  9083,6826.462,93.552,449.257,447.396,0.0
54084.0,STARLINK-5183,PAYLOAD,2022-12-14 14:00:01,15.38436896,0.0001378,53.2173,237.6767,62.6737,78.0383,-0.03248,-0.0114113,0.0,0 STARLINK-5183,1 54084U 22136AK  22348.58334491 -.01141130  00000-0 -32480-1 0  9992,2 54084  53.2173 237.6767 0001378  62.6737  78.0383 15.38436896  1308,6828.868,93.601,451.674,449.792,0.0
54084.0,STARLINK-5183,PAYLOAD,2022-12-14 22:00:00,15.37633679,0.0001371,53.217,236.1137,80.373,106.993,-0.033788,-0.01154924,0.0,0 STARLINK-5183,1 54084U 22136AK  22348.91667824 -.01154924  00000-0 -33788-1 0  9995,2 54084  53.2170 236.1137 0001371  80.3730 106.9930 15.37633679  1309,6831.246,93.65,454.047,452.174,0.0
54084.0,STARLINK-5183,PAYLOAD,2022-12-15 10:00:00,15.36402066,0.0001159,53.2176,233.7688,77.5172,358.0117,-0.03466,-0.01139542,0.0,0 STARLINK-5183,1 54084U 22136AK  22349.41667824 -.01139542  00000-0 -34660-1 0  9990,2 54084  53.2176 233.7688 0001159  77.5172 358.0117 15.36402066  9264,6834.896,93.725,457.55300000000005,455.969,0.0
54084.0,STARLINK-5183,PAYLOAD,2022-12-15 14:00:01,15.35993822,0.0001254,53.2174,232.9879,73.3831,204.3767,-0.035048,-0.01137389,0.0,0 STARLINK-5183,1 54084U 22136AK  22349.58334491 -.01137389  00000-0 -35048-1 0  9997,2 54084  53.2174 232.9879 0001254  73.3831 204.3767 15.35993822  1302,6836.107,93.75,458.829,457.115,0.0
54084.0,STARLINK-5183,PAYLOAD,2022-12-15 22:00:00,15.35180758,0.0001243,53.2174,231.4306,67.1099,254.375,-0.035997,-0.01137895,0.0,0 STARLINK-5183,1 54084U 22136AK  22349.91667824 -.01137895  00000-0 -35997-1 0  9998,2 54084  53.2174 231.4306 0001243  67.1099 254.3750 15.35180758  1309,6838.521,93.8,461.236,459.536,0.0
54084.0,STARLINK-5183,PAYLOAD,2022-12-16 08:00:01,15.34182794,0.0001463,53.2165,229.4848,55.597,49.1618,-0.038103,-0.01164061,0.0,0 STARLINK-5183,1 54084U 22136AK  22350.33334491 -.01164061  00000-0 -38103-1 0  9994,2 54084  53.2165 229.4848 0001463  55.5970  49.1618 15.34182794  9403,6841.486,93.861,464.352,462.35,0.0
54084.0,STARLINK-5183,PAYLOAD,2022-12-16 14:00:01,15.33553977,0.0001299,53.217,228.3172,54.6744,351.331,-0.037972,-0.0113931,0.0,0 STARLINK-5183,1 54084U 22136AK  22350.58334491 -.01139310  00000-0 -37972-1 0  9993,2 54084  53.2170 228.3172 0001299  54.6744 351.3310 15.33553977  1305,6843.356,93.9,466.11,464.332,0.0
54084.0,STARLINK-5183,PAYLOAD,2022-12-16 22:00:00,15.32740533,0.0001486,53.2175,226.7653,50.8905,35.9071,-0.038968,-0.01139415,0.0,0 STARLINK-5183,1 54084U 22136AK  22350.91667824 -.01139415  00000-0 -38968-1 0  9991,2 54084  53.2175 226.7653 0001486  50.8905  35.9071 15.32740533  1305,6845.776999999999,93.949,468.659,466.625,0.0
54084.0,STARLINK-5183,PAYLOAD,2022-12-17 14:00:01,15.31118484,0.0001423,53.217,223.6634,62.9153,102.5972,-0.041338,-0.01147673,0.0,0 STARLINK-5183,1 54084U 22136AK  22351.58335648 -.01147673  00000-0 -41338-1 0  9991,2 54084  53.2170 223.6634 0001423  62.9153 102.5972 15.31118484  1309,6850.611,94.049,473.451,471.501,0.0
54084.0,STARLINK-5183,PAYLOAD,2022-12-17 22:00:00,15.30277676,0.0001411,53.2169,222.1175,71.9224,131.39700000000002,-0.040858,-0.01108525,0.0,0 STARLINK-5183,1 54084U 22136AK  22351.91667824 -.01108525  00000-0 -40858-1 0  9991,2 54084  53.2169 222.1175 0001411  71.9224 131.3970 15.30277676  1303,6853.12,94.101,475.952,474.018,0.0
54084.0,STARLINK-5183,PAYLOAD,2022-12-18 14:00:01,15.2866981,0.0001291999999999,53.2175,219.0261,76.7543,199.3428,-0.044102,-0.01135691,0.0,0 STARLINK-5183,1 54084U 22136AK  22352.58334491 -.01135691  00000-0 -44102-1 0  9996,2 54084  53.2175 219.0261 0001292  76.7543 199.3428 15.28669810  1309,6857.925,94.2,480.676,478.904,0.0
54084.0,STARLINK-5183,PAYLOAD,2022-12-18 22:00:00,15.27856693,0.0001312,53.2174,217.4864,66.1167,244.9049,-0.045254,-0.01136462,0.0,0 STARLINK-5183,1 54084U 22136AK  22352.91667824 -.01136462  00000-0 -45254-1 0  9998,2 54084  53.2174 217.4864 0001312  66.1167 244.9049 15.27856693  1309,6860.358,94.25,483.12300000000016,481.323,0.0
54084.0,STARLINK-5183,PAYLOAD,2022-12-19 12:00:00,15.26430852,0.0001284,53.2174,214.7912,71.7722,208.0187,-0.047126,-0.01133258,0.0,0 STARLINK-5183,1 54084U 22136AK  22353.50001157 -.01133258  00000-0 -47126-1 0  9995,2 54084  53.2174 214.7912 0001284  71.7722 208.0187 15.26430852  1308,6864.629,94.338,487.376,485.61300000000006,0.0
54084.0,STARLINK-5183,PAYLOAD,2022-12-19 16:00:00,15.26024863,0.0001415,53.2177,214.023,63.0813,52.9498,-0.047762,-0.01134377,0.0,0 STARLINK-5183,1 54084U 22136AK  22353.66667824 -.01134377  00000-0 -47762-1 0  9990,2 54084  53.2177 214.0230 0001415  63.0813  52.9498 15.26024863  9926,6865.847,94.363,488.6830000000001,486.74,0.0
54084.0,STARLINK-5183,PAYLOAD,2022-12-19 22:00:00,15.25417177,0.0001361999999999,53.2175,212.8728,58.4292,351.5026,-0.048866,-0.01154177,0.0,0 STARLINK-5183,1 54084U 22136AK  22353.91667824 -.01154177  00000-0 -48866-1 0  9994,2 54084  53.2175 212.8728 0001362  58.4292 351.5026 15.25417177  1304,6867.67,94.4,490.47,488.6,0.0
54084.0,STARLINK-5183,PAYLOAD,2022-12-20 14:00:01,15.23792742,0.0001467,53.2168,209.8053,61.0784,49.9035,-0.051458,-0.01157176,0.0,0 STARLINK-5183,1 54084U 22136AK  22354.58334491 -.01157176  00000-0 -51458-1 0  9992,2 54084  53.2168 209.8053 0001467  61.0784  49.9035 15.23792742  1305,6872.55,94.501,495.423,493.407,0.0
